{
  "norad_id": 59403,
  "name": "STARLINK-31366",
  "history": [
    {
      "epoch": "2026-03-28T21:36:48.822912Z",
      "apogee_km": 483.9608716460825,
      "perigee_km": 482.20412500573184,
      "latitude_deg": 3.5209434228299294e-06,
      "longitude_deg": 157.17950158065904,
      "height_km": 482.75683145175145,
      "semi_major_axis_km": 6861.219498325907,
      "eccentricity": 0.00012802,
      "inclination_deg": 43.0044,
      "raan_deg": 307.6973,
      "arg_perigee_deg": 276.7188,
      "mean_anomaly_deg": 83.3518,
      "mean_motion_rev_day": 15.27568845
    },
    {
      "epoch": "2026-03-28T23:10:57.641088Z",
      "apogee_km": 483.87828012612044,
      "perigee_km": 482.14789807364923,
      "latitude_deg": -4.402028550816143e-05,
      "longitude_deg": 133.20736714830352,
      "height_km": 482.86139581034337,
      "semi_major_axis_km": 6861.150089099885,
      "eccentricity": 0.0001261,
      "inclination_deg": 43.0021,
      "raan_deg": 307.3264,
      "arg_perigee_deg": 265.2598,
      "mean_anomaly_deg": 94.8109,
      "mean_motion_rev_day": 15.27592025
    },
    {
      "epoch": "2026-03-29T22:43:19.168896Z",
      "apogee_km": 483.9222484057909,
      "perigee_km": 482.2055759375662,
      "latitude_deg": -4.712762816977372e-05,
      "longitude_deg": 133.6141398574005,
      "height_km": 482.7746862336635,
      "semi_major_axis_km": 6861.200912171678,
      "eccentricity": 0.0001251,
      "inclination_deg": 43.0022,
      "raan_deg": 301.7896,
      "arg_perigee_deg": 274.414,
      "mean_anomaly_deg": 85.6568,
      "mean_motion_rev_day": 15.27575052
    },
    {
      "epoch": "2026-03-29T22:43:19.169760Z",
      "apogee_km": 483.9220425697631,
      "perigee_km": 482.205781773594,
      "latitude_deg": -4.94825987375783e-05,
      "longitude_deg": 133.61413373630188,
      "height_km": 482.77470207355935,
      "semi_major_axis_km": 6861.200912171678,
      "eccentricity": 0.00012507,
      "inclination_deg": 43.0022,
      "raan_deg": 301.7896,
      "arg_perigee_deg": 274.414,
      "mean_anomaly_deg": 85.6568,
      "mean_motion_rev_day": 15.27575052
    },
    {
      "epoch": "2026-03-30T14:24:53.332992Z",
      "apogee_km": 483.85022118195957,
      "perigee_km": 482.3071337760939,
      "latitude_deg": 1.3604610086431129e-06,
      "longitude_deg": -106.114539470415,
      "height_km": 482.8122608547465,
      "semi_major_axis_km": 6861.215677479026,
      "eccentricity": 0.00011245,
      "inclination_deg": 43.0033,
      "raan_deg": 298.0977,
      "arg_perigee_deg": 273.2141,
      "mean_anomaly_deg": 86.8582,
      "mean_motion_rev_day": 15.27570121
    },
    {
      "epoch": "2026-03-30T20:41:29.490432Z",
      "apogee_km": 483.8804038236203,
      "perigee_km": 482.08704408879294,
      "latitude_deg": 7.670059809339206e-06,
      "longitude_deg": 157.99893622353744,
      "height_km": 482.7586229846764,
      "semi_major_axis_km": 6861.120723956206,
      "eccentricity": 0.00013069,
      "inclination_deg": 43.0028,
      "raan_deg": 296.6196,
      "arg_perigee_deg": 270.13,
      "mean_anomaly_deg": 89.9402,
      "mean_motion_rev_day": 15.27601832
    },
    {
      "epoch": "2026-03-31T06:06:26.197632Z",
      "apogee_km": 483.9017966138872,
      "perigee_km": 482.17552481765233,
      "latitude_deg": 2.0030755290975247e-05,
      "longitude_deg": 14.155078726991713,
      "height_km": 482.51060841408366,
      "semi_major_axis_km": 6861.1756607157695,
      "eccentricity": 0.0001258,
      "inclination_deg": 43.0023,
      "raan_deg": 294.3987,
      "arg_perigee_deg": 290.6834,
      "mean_anomaly_deg": 69.3883,
      "mean_motion_rev_day": 15.27583485
    },
    {
      "epoch": "2026-03-31T21:48:00.853344Z",
      "apogee_km": 484.0053315454252,
      "perigee_km": 482.1500590918113,
      "latitude_deg": 2.7597104395762383e-05,
      "longitude_deg": 134.43090194839704,
      "height_km": 483.08438445206957,
      "semi_major_axis_km": 6861.214695318618,
      "eccentricity": 0.0001352,
      "inclination_deg": 43.0042,
      "raan_deg": 290.7134,
      "arg_perigee_deg": 255.6679,
      "mean_anomaly_deg": 104.4023,
      "mean_motion_rev_day": 15.27570449
    },
    {
      "epoch": "2026-04-02T19:18:32.796000Z",
      "apogee_km": 484.1579639515721,
      "perigee_km": 481.92437601011716,
      "latitude_deg": 6.229250976694164e-05,
      "longitude_deg": 159.2164634760033,
      "height_km": 482.8011621797445,
      "semi_major_axis_km": 6861.178169980844,
      "eccentricity": 0.00016277,
      "inclination_deg": 42.9999,
      "raan_deg": 280.001,
      "arg_perigee_deg": 270.866,
      "mean_anomaly_deg": 89.2006,
      "mean_motion_rev_day": 15.27582647
    },
    {
      "epoch": "2026-04-03T12:34:15.981312Z",
      "apogee_km": 484.19001598731575,
      "perigee_km": 481.89303064128035,
      "latitude_deg": -4.658022494997687e-06,
      "longitude_deg": -104.48527160793476,
      "height_km": 482.9498480053275,
      "semi_major_axis_km": 6861.178523314297,
      "eccentricity": 0.00016739,
      "inclination_deg": 43.0001,
      "raan_deg": 275.9382,
      "arg_perigee_deg": 263.4295,
      "mean_anomaly_deg": 96.6366,
      "mean_motion_rev_day": 15.27582529
    },
    {
      "epoch": "2026-04-04T19:57:23.750496Z",
      "apogee_km": 484.0036363195086,
      "perigee_km": 482.136015821452,
      "latitude_deg": -2.669791730968636e-05,
      "longitude_deg": 136.05747612779578,
      "height_km": 482.70459369550895,
      "semi_major_axis_km": 6861.20682607048,
      "eccentricity": 0.0001361,
      "inclination_deg": 42.9985,
      "raan_deg": 268.5523,
      "arg_perigee_deg": 278.7308,
      "mean_anomaly_deg": 81.3389,
      "mean_motion_rev_day": 15.27573077
    },
    {
      "epoch": "2026-04-05T13:13:07.854240Z",
      "apogee_km": 484.1318714090439,
      "perigee_km": 482.0911988697226,
      "latitude_deg": -5.27328766244764e-06,
      "longitude_deg": -127.64730322869958,
      "height_km": 482.78136223884064,
      "semi_major_axis_km": 6861.248535139383,
      "eccentricity": 0.00014871,
      "inclination_deg": 42.9989,
      "raan_deg": 264.4902,
      "arg_perigee_deg": 276.0102,
      "mean_anomaly_deg": 84.058,
      "mean_motion_rev_day": 15.27559148
    },
    {
      "epoch": "2026-04-07T12:17:49.238880Z",
      "apogee_km": 484.17181657542096,
      "perigee_km": 481.9328732683862,
      "latitude_deg": 2.8536059637327387e-05,
      "longitude_deg": -126.82783939264382,
      "height_km": 482.9383495990472,
      "semi_major_axis_km": 6861.189344921903,
      "eccentricity": 0.00016316,
      "inclination_deg": 43.0032,
      "raan_deg": 253.4155,
      "arg_perigee_deg": 264.4236,
      "mean_anomaly_deg": 95.643,
      "mean_motion_rev_day": 15.27578915
    },
    {
      "epoch": "2026-04-07T17:00:17.119008Z",
      "apogee_km": 484.20681944497574,
      "perigee_km": 481.86990311692443,
      "latitude_deg": 4.669998938076278e-05,
      "longitude_deg": 161.2513720094453,
      "height_km": 483.04528865759715,
      "semi_major_axis_km": 6861.17536128095,
      "eccentricity": 0.0001703,
      "inclination_deg": 43.0007,
      "raan_deg": 252.3042,
      "arg_perigee_deg": 258.6494,
      "mean_anomaly_deg": 101.4167,
      "mean_motion_rev_day": 15.27583585
    },
    {
      "epoch": "2026-04-08T10:16:00.466752Z",
      "apogee_km": 484.66895560000376,
      "perigee_km": 481.44227393712936,
      "latitude_deg": -4.043072596542852e-05,
      "longitude_deg": -102.45036551872546,
      "height_km": 482.7398032104372,
      "semi_major_axis_km": 6861.192614768566,
      "eccentricity": 0.00023514,
      "inclination_deg": 43.0007,
      "raan_deg": 248.2421,
      "arg_perigee_deg": 273.3164,
      "mean_anomaly_deg": 86.7418,
      "mean_motion_rev_day": 15.27577823
    },
    {
      "epoch": "2026-04-09T16:04:58.979712Z",
      "apogee_km": 484.25440239901036,
      "perigee_km": 481.8310337225912,
      "latitude_deg": -2.108690879728161e-05,
      "longitude_deg": 162.06853737117942,
      "height_km": 482.7970624457073,
      "semi_major_axis_km": 6861.1797180608,
      "eccentricity": 0.0001766,
      "inclination_deg": 43.003,
      "raan_deg": 241.2293,
      "arg_perigee_deg": 271.0872,
      "mean_anomaly_deg": 88.9777,
      "mean_motion_rev_day": 15.2758213
    },
    {
      "epoch": "2026-04-10T09:20:42.347328Z",
      "apogee_km": 484.45802292007284,
      "perigee_km": 481.64630760014916,
      "latitude_deg": 1.5843024534408604e-06,
      "longitude_deg": -101.63506580372672,
      "height_km": 482.77669210805334,
      "semi_major_axis_km": 6861.189165260111,
      "eccentricity": 0.0002049,
      "inclination_deg": 43.0015,
      "raan_deg": 237.1653,
      "arg_perigee_deg": 272.1547,
      "mean_anomaly_deg": 87.907,
      "mean_motion_rev_day": 15.27578975
    },
    {
      "epoch": "2026-04-11T19:52:09.081696Z",
      "apogee_km": 483.61923734171523,
      "perigee_km": 482.49949009515694,
      "latitude_deg": 1.7305181732727196e-05,
      "longitude_deg": 90.96200090306395,
      "height_km": 482.9010245063378,
      "semi_major_axis_km": 6861.196363718436,
      "eccentricity": 8.16e-05,
      "inclination_deg": 43.0004,
      "raan_deg": 229.0416,
      "arg_perigee_deg": 263.288,
      "mean_anomaly_deg": 96.7879,
      "mean_motion_rev_day": 15.27576571
    },
    {
      "epoch": "2026-04-12T19:24:28.074528Z",
      "apogee_km": 483.67080586013617,
      "perigee_km": 482.3247884356315,
      "latitude_deg": -1.611691233517324e-05,
      "longitude_deg": 91.37723145413341,
      "height_km": 482.7876175357213,
      "semi_major_axis_km": 6861.134797147884,
      "eccentricity": 9.809e-05,
      "inclination_deg": 43.0007,
      "raan_deg": 223.5027,
      "arg_perigee_deg": 268.859,
      "mean_anomaly_deg": 91.2149,
      "mean_motion_rev_day": 15.27597132
    },
    {
      "epoch": "2026-04-14T18:29:09.993984Z",
      "apogee_km": 484.1464457132615,
      "perigee_km": 481.7066515153747,
      "latitude_deg": -3.666062694531609e-05,
      "longitude_deg": 92.19270927213398,
      "height_km": 482.7986576529661,
      "semi_major_axis_km": 6861.063548614318,
      "eccentricity": 0.0001778,
      "inclination_deg": 43.002,
      "raan_deg": 212.4263,
      "arg_perigee_deg": 265.5383,
      "mean_anomaly_deg": 94.5265,
      "mean_motion_rev_day": 15.27620927
    }
  ]
}